{"type": "FeatureCollection", "features": [{"type": "Feature", "properties": {"osm_id": 19563440, "name_en": "Wilayat of Ibri", "admin_level": 6, "downloaded": "2026-09-17", "source": "OpenStreetMap contributors, ODbL"}, "bbox": [55.2113705, 21.3373148, 57.1435314, 23.7277416], "geometry": {"type": "Polygon", "coordinates": [[[55.2113705, 22.7054225], [55.4816034, 22.2871913], [55.5272929, 22.2128039], [55.566698, 22.1552531], [55.6666851, 22.0000149], [55.5501704, 21.6546257], [55.5147153, 21.544505], [55.4904027, 21.4766628], [55.4792994, 21.4381566], [55.443956, 21.3373148], [56.5773679, 21.4908794], [56.6022469, 21.6490577], [56.6225688, 21.6585619], [56.6339463, 21.6716626], [56.6361032, 21.6923125], [56.6294401, 21.7064052], [56.6139764, 21.7237928], [56.6708371, 22.0931856], [56.7026659, 22.237432], [56.7356105, 22.250222], [56.7739114, 22.3118856], [56.774448, 22.3534561], [56.7862432, 22.4027188], [56.7869401, 22.4703368], [56.7986486, 22.4717073], [56.7989561, 22.4756204], [56.797713, 22.4806327], [56.7871135, 22.4871522], [56.7872952, 22.5047702], [56.7648775, 22.5406903], [56.7597456, 22.5852141], [56.7786438, 22.6251572], [56.7822537, 22.6369585], [56.8376363, 22.6870181], [56.889039, 22.7185187], [56.9457195, 22.7292208], [56.9850587, 22.7324125], [56.996154, 22.7595632], [56.990301, 22.7758529], [56.9525516, 22.8082389], [56.9392312, 22.8031788], [56.9053018, 22.8303121], [56.8860982, 22.8591344], [56.8977012, 22.8771171], [56.8888055, 22.8851274], [56.8884489, 22.8906727], [56.9019705, 22.893397], [56.9077769, 22.8927282], [56.9177721, 22.9082105], [56.938973, 22.9295653], [56.9348291, 22.9543666], [56.9226551, 22.9626365], [56.9464843, 23.0318275], [56.9316441, 23.0400317], [56.9150826, 23.0439311], [56.9130727, 23.0488374], [56.921393, 23.0624496], [56.9294156, 23.0677136], [56.9574901, 23.1163024], [56.9299718, 23.1456308], [56.9313782, 23.165478], [56.9572869, 23.1559383], [56.9580961, 23.1568747], [56.9635604, 23.1565016], [56.9590998, 23.1836493], [57.077936, 23.2145284], [57.0779606, 23.2569024], [57.1237559, 23.2851661], [57.1335535, 23.289061], [57.1431457, 23.2892889], [57.1434067, 23.2941324], [57.1421311, 23.2973233], [57.1398326, 23.3008695], [57.1359983, 23.3035901], [57.1188661, 23.3117557], [57.0833631, 23.3187908], [57.0749596, 23.3277922], [57.0714486, 23.3323487], [57.0887327, 23.3712242], [57.057041, 23.4119548], [57.0226635, 23.4407786], [57.0073975, 23.451472], [57.0205123, 23.4668761], [57.0781112, 23.4896179], [57.0939741, 23.5072934], [57.0360308, 23.5476684], [57.0041786, 23.5635386], [56.9866105, 23.5412369], [56.9597106, 23.5333182], [56.9485448, 23.5317235], [56.925545, 23.5443882], [56.9172359, 23.5575859], [56.9184562, 23.5904157], [56.8777645, 23.597853], [56.8610059, 23.6153825], [56.8579892, 23.6166577], [56.8579018, 23.6188251], [56.8697069, 23.6428662], [56.8645341, 23.6520645], [56.8630905, 23.6529493], [56.8498191, 23.6513422], [56.8377087, 23.6548097], [56.825349, 23.6286363], [56.806691, 23.6222324], [56.8111769, 23.6455019], [56.8084153, 23.6810176], [56.7633872, 23.6288328], [56.6673315, 23.706948], [56.6495161, 23.7277416], [56.5900528, 23.7167431], [56.5669245, 23.6774028], [56.5659147, 23.6589533], [56.5762016, 23.653917], [56.5880405, 23.6505104], [56.5927063, 23.64748], [56.5996992, 23.6236587], [56.5807482, 23.6144082], [56.5890205, 23.6023614], [56.5743049, 23.5936828], [56.5693423, 23.5884352], [56.5680277, 23.5851015], [56.5702773, 23.583796], [56.5744825, 23.5870995], [56.5762502, 23.5862779], [56.5714619, 23.5792463], [56.5722863, 23.5782884], [56.5769053, 23.5752726], [56.5868367, 23.5756656], [56.6041445, 23.5582641], [56.5829815, 23.5354524], [56.5821824, 23.5026692], [56.5568653, 23.486264], [56.586409, 23.4502207], [56.5786543, 23.4326171], [56.5824544, 23.4161975], [56.5734299, 23.4057964], [56.5806829, 23.3836212], [56.5606983, 23.3835664], [56.5513499, 23.377775], [56.5576417, 23.3636689], [56.550487, 23.3558659], [56.4835895, 23.3784307], [56.4692527, 23.3717531], [56.4539275, 23.3780417], [56.4192743, 23.3847978], [56.2631128, 23.4741173], [56.208312, 23.4872801], [56.1790339, 23.4847706], [56.1485012, 23.4939851], [56.0109663, 23.479286], [55.9757505, 23.4981517], [55.8851536, 23.5133756], [55.7622597, 23.4706584], [55.7082263, 23.4690673], [55.6904317, 23.4360646], [55.68264, 23.4028566], [55.6589358, 23.3622943], [55.5310861, 23.3356924], [55.4172878, 23.3831115], [55.4165065, 23.3821507], [55.4015366, 23.3925249], [55.3477551, 23.2928782], [55.2968307, 23.2039837], [55.2806966, 23.1777105], [55.2422659, 23.1285133], [55.232271, 23.1103478], [55.2302089, 23.0946205], [55.2312351, 23.0853734], [55.2253932, 23.0724311], [55.2300404, 23.0555853], [55.2298645, 23.0481447], [55.2182473, 23.0333965], [55.2162834, 23.0262103], [55.2170644, 23.0096644], [55.2202048, 22.9945811], [55.2170129, 22.9860803], [55.2197118, 22.9781908], [55.2172522, 22.9607], [55.2184152, 22.9520523], [55.2142122, 22.9445768], [55.2132739, 22.9355017], [55.2156745, 22.9185865], [55.2150651, 22.9094435], [55.2173343, 22.9002692], [55.2229728, 22.8927132], [55.225243, 22.8848823], [55.2253611, 22.8750913], [55.2226695, 22.8594165], [55.2176712, 22.8508795], [55.2186489, 22.8414534], [55.221377, 22.8325797], [55.2259725, 22.825001], [55.2229855, 22.8168465], [55.2236947, 22.8074338], [55.2274657, 22.7916128], [55.2202063, 22.7655556], [55.2128404, 22.7056862], [55.2113705, 22.7054225]]]}}]}