{"type": "FeatureCollection", "features": [{"type": "Feature", "properties": {"osm_id": 209289047, "name": "Ibri Oasis Hotel", "kind": "tourism=hotel"}, "geometry": {"type": "Polygon", "coordinates": [[[56.4142691, 23.2495699], [56.4149069, 23.2487899], [56.4140712, 23.2481559], [56.4134122, 23.248985], [56.4142691, 23.2495699]]]}}, {"type": "Feature", "properties": {"osm_id": 314946880, "name": "\u0645\u062d\u0637\u0629 \u0627\u0644\u0635\u0631\u0641 \u0627\u0644\u0635\u062d\u064a", "kind": "man_made=wastewater_plant"}, "geometry": {"type": "Polygon", "coordinates": [[[56.4561806, 23.1787312], [56.4598564, 23.1767329], [56.4557565, 23.1704293], [56.4534944, 23.1717615], [56.4530526, 23.1738736], [56.4561806, 23.1787312]]]}}, {"type": "Feature", "properties": {"osm_id": 314948590, "name": "\u0635\u0646\u0627\u0639\u064a\u0629 \u062a\u0646\u0639\u0645", "kind": "landuse=industrial"}, "geometry": {"type": "Polygon", "coordinates": [[[56.4731758, 23.1650124], [56.465966, 23.1550886], [56.4634778, 23.1568014], [56.4644048, 23.1580661], [56.4627705, 23.1592072], [56.4662597, 23.1639095], [56.4668361, 23.1635226], [56.4693361, 23.1671607], [56.4731758, 23.1650124]]]}}, {"type": "Feature", "properties": {"osm_id": 325397480, "name": "", "kind": "landuse=industrial"}, "geometry": {"type": "Polygon", "coordinates": [[[56.4689946, 23.168777], [56.469595, 23.1675604], [56.4706677, 23.1681982], [56.4699915, 23.1694952], [56.4689946, 23.168777]]]}}, {"type": "Feature", "properties": {"osm_id": 344576199, "name": "\u0635\u0646\u0627\u0639\u064a\u0629 \u0639\u0628\u0631\u064a", "kind": "landuse=industrial"}, "geometry": {"type": "Polygon", "coordinates": [[[56.4995086, 23.2351719], [56.4993687, 23.2354113], [56.4988702, 23.2351806], [56.4984845, 23.2352174], [56.4980406, 23.2353478], [56.496818, 23.2348062], [56.4967416, 23.2349065], [56.4961667, 23.2347293], [56.4956442, 23.235128], [56.4952356, 23.2354256], [56.4941982, 23.2345794], [56.4937943, 23.2338171], [56.4941437, 23.2335763], [56.4937477, 23.2326118], [56.495211, 23.2318143], [56.4950728, 23.2309951], [56.4952365, 23.2305571], [56.4962844, 23.2306942], [56.4961246, 23.2317114], [56.4961482, 23.2324344], [56.4963449, 23.2329966], [56.4965695, 23.2333504], [56.4967783, 23.2336171], [56.4969997, 23.2338173], [56.4995086, 23.2351719]]]}}, {"type": "Feature", "properties": {"osm_id": 366934573, "name": "", "kind": "landuse=military"}, "geometry": {"type": "Polygon", "coordinates": [[[56.4390235, 23.2032459], [56.4390722, 23.1929785], [56.4390999, 23.1929385], [56.4437542, 23.1886601], [56.445157, 23.1873955], [56.4451578, 23.1853885], [56.4215214, 23.1853188], [56.4214937, 23.1885269], [56.4215062, 23.1914164], [56.4315902, 23.2007515], [56.4326954, 23.2011204], [56.4326994, 23.2000519], [56.4331559, 23.2000548], [56.4333123, 23.2000555], [56.4332944, 23.2011311], [56.4332909, 23.2013446], [56.4390235, 23.2032459]]]}}, {"type": "Feature", "properties": {"osm_id": 405736764, "name": "", "kind": "man_made=wastewater_plant"}, "geometry": {"type": "Polygon", "coordinates": [[[56.4870762, 23.2521999], [56.4872364, 23.2521357], [56.4871652, 23.2519759], [56.4869914, 23.2520429], [56.4870762, 23.2521999]]]}}, {"type": "Feature", "properties": {"osm_id": 456581689, "name": "\u0635\u0646\u0627\u0639\u064a\u0629 \u0627\u0644\u0637\u064a\u0628", "kind": "landuse=industrial"}, "geometry": {"type": "Polygon", "coordinates": [[[56.5504472, 23.2539486], [56.557673, 23.2511097], [56.5584348, 23.2532882], [56.5615032, 23.2545302], [56.5613799, 23.2556835], [56.5562783, 23.2610063], [56.5578232, 23.2623369], [56.556171, 23.2638647], [56.5546421, 23.262741], [56.5536336, 23.2635394], [56.5495513, 23.259306], [56.5524159, 23.257236], [56.5512035, 23.2556194], [56.5504472, 23.2539486]]]}}, {"type": "Feature", "properties": {"osm_id": 1007634735, "name": "MOT Centre", "kind": "landuse=industrial"}, "geometry": {"type": "Polygon", "coordinates": [[[56.3855405, 23.2749512], [56.3867923, 23.2739812], [56.3841056, 23.2710516], [56.3828666, 23.2720138], [56.3855405, 23.2749512]]]}}, {"type": "Feature", "properties": {"osm_id": 1258208706, "name": "ALNEBRAS HOTEL", "kind": "tourism=hotel"}, "geometry": {"type": "Polygon", "coordinates": [[[56.4771995, 23.1888154], [56.4769395, 23.1889365], [56.4773492, 23.1895994], [56.4774995, 23.1895317], [56.4776241, 23.1894483], [56.4773842, 23.1890994], [56.4771995, 23.1888154]]]}}, {"type": "Feature", "properties": {"osm_id": 1465668244, "name": "Madayn Ibri Industrial City", "kind": "landuse=industrial"}, "geometry": {"type": "Polygon", "coordinates": [[[56.3469837, 23.1099289], [56.3505324, 23.092493], [56.3661339, 23.0951796], [56.3625852, 23.1126152], [56.3469837, 23.1099289]]]}}, {"type": "Feature", "properties": {"osm_id": 1534551091, "name": "Ibri Landfill \u0645\u0631\u062f\u0645 \u0639\u0628\u0631\u064a \u0627\u0644\u0647\u0646\u062f\u0633\u064a", "kind": "landuse=industrial"}, "geometry": {"type": "Polygon", "coordinates": [[[56.5059277, 23.1615963], [56.5115771, 23.1620767], [56.5124053, 23.1571364], [56.5122278, 23.1568191], [56.5062925, 23.1558854], [56.5062728, 23.155967], [56.5062333, 23.1564837], [56.5059277, 23.1615963]]]}}]}