{"type": "FeatureCollection", "features": [{"type": "Feature", "geometry": {"type": "LineString", "coordinates": [[446286.3741321168, 2565529.848601959], [446129.8888115705, 2565531.317964023], [446094.70376078645, 2565551.8483166276], [446306.6184350606, 2565558.178949457], [446286.3741321168, 2565529.848601959], [446453.5855220731, 2565527.943677562], [446306.6184350606, 2565558.178949457], [446458.4561933484, 2565498.880303056], [446453.5855220731, 2565527.943677562], [446508.854397186, 2565471.100764182], [446458.4561933484, 2565498.880303056], [446590.5287625526, 2565426.081774715], [446508.854397186, 2565471.100764182], [446798.6237203006, 2565325.202001225], [446647.8621680482, 2565401.777151712], [446590.5287625526, 2565426.081774715], [446798.6237203006, 2565325.202001225], [446744.9131261762, 2565220.384367286], [446744.9131261762, 2565220.384367286], [446778.83984464605, 2565205.346060689]]}, "properties": {"name": "street A", "len_m": 949, "z_low": 336.6, "z_join": 341.3, "climb_m": 5.9, "note": "street A: 949 m from the low at 336.6 m up to the main pipe at 341.3 m, climb 5.9 m"}}, {"type": "Feature", "geometry": {"type": "LineString", "coordinates": [[445807.4838239155, 2565871.918674924], [445744.18167530006, 2565834.1467645187], [445807.4838239155, 2565871.918674924], [445861.1516128026, 2565780.498451158], [445899.7453736761, 2565803.803248916], [445861.1516128026, 2565780.498451158], [445969.9364686765, 2565846.014657611], [445899.7453736761, 2565803.803248916], [446045.7424884146, 2565891.224641799], [445969.9364686765, 2565846.014657611], [446132.95651163, 2565941.427546531], [446045.7424884146, 2565891.224641799], [446210.0346689839, 2565987.851432928], [446132.95651163, 2565941.427546531], [446274.9304488948, 2566025.554546394], [446210.0346689839, 2565987.851432928], [446289.4690187012, 2566034.001156448], [446414.507413107, 2566106.722297473], [446452.88399112213, 2566129.4856514586], [446414.507413107, 2566106.722297473], [446495.5246333611, 2566154.778266998], [446452.88399112213, 2566129.4856514586], [446634.24211165524, 2566240.6349230357], [446495.5246333611, 2566154.778266998], [446708.5898041189, 2566286.901141584], [446634.24211165524, 2566240.6349230357], [446708.5898041189, 2566286.901141584], [446756.1898491431, 2566210.825855425], [446756.1898491431, 2566210.825855425], [446781.2143782818, 2566140.3251405424], [446781.2143782818, 2566140.3251405424], [446783.6500354759, 2566133.463250257], [446841.1234221248, 2566162.460943422], [446882.7744810091, 2566159.176542606], [447028.9425725776, 2566120.807976091], [447049.9873378962, 2566154.438590594], [447049.9873378962, 2566154.438590594], [447082.4519053229, 2566206.318634662], [447163.61428540124, 2566161.846316855], [447163.61428540124, 2566161.846316855], [447239.8538316237, 2566120.071428959], [447239.8538316237, 2566120.071428959], [447267.17746264895, 2566106.571008845]]}, "properties": {"name": "street B", "len_m": 1890, "z_low": 337.8, "z_join": 342.4, "climb_m": 5.0, "note": "street B: 1890 m from the low at 337.8 m up to the main pipe at 342.4 m, climb 5.0 m"}}]}